STARLINK-34182          
1 64013U 25101V   25284.88183582  .00039087  00000+0  14197-2 0  9997
2 64013  43.0059 115.1732 0002679 263.7313  96.3233 15.27641305 24338
STARLINK-34192          
1 64014U 25101W   25284.88779529  .00037202  00000+0  13539-2 0  9996
2 64014  43.0005 118.6772 0001639 266.9085  93.1579 15.27598104 24299
STARLINK-34093          
1 64015U 25101X   25284.84539257  .00028604  00000+0  10443-2 0  9992
2 64015  43.0032 118.3565 0001366 259.5245 100.5453 15.27600120 24296
STARLINK-34016          
1 64016U 25101Y   25284.90563896  .00035010  00000+0  12748-2 0  9995
2 64016  42.9985 117.9495 0001674 260.4408  99.6255 15.27603864 24301
STARLINK-34161          
1 64017U 25101Z   25284.91463264  .00038961  00000+0  14168-2 0  9991
2 64017  43.0014 118.0188 0001492 265.2763  94.7918 15.27604306 24307
STARLINK-34162          
1 64018U 25101AA  25284.92748289  .00035234  00000+0  12828-2 0  9997
2 64018  43.0009 118.1173 0001262 259.1890 100.8819 15.27604885 24306
STARLINK-34155          
1 64019U 25101AB  25284.93518823  .00027234  00000+0  99442-3 0  9997
2 64019  43.0054 118.1735 0002931 275.1231  84.9286 15.27615150 24309
STARLINK-34141          
1 64020U 25101AC  25284.93133282  .00017983  00000+0  66113-3 0  9990
2 64020  43.0046 118.1442 0002303 270.6937  89.3650 15.27594098 24304
STARLINK-34062          
1 64021U 25101AD  25284.90948777  .00029900  00000+0  10922-2 0  9999
2 64021  43.0026 117.9763 0001500 253.5263 106.5424 15.27563916 24302
STARLINK-34051          
1 64022U 25102A   25284.82478654  .00005296  00000+0  45112-3 0  9996
2 64022  70.0016 129.8024 0002349 271.7583  88.3307 14.98343905 23658
STARLINK-34184          
1 64023U 25102B   25284.57427787  .00005789  00000+0  49242-3 0  9995
2 64023  69.9987 130.5300 0002618 269.4729  90.6130 14.98341566 23622
STARLINK-34087          
1 64024U 25102C   25284.54088544  .00005684  00000+0  48348-3 0  9997
2 64024  70.0026 130.4147 0003464 267.6200  92.4562 14.98351185 23506
STARLINK-34088          
1 64025U 25102D   25284.58279362  .00003904  00000+0  33480-3 0  9996
2 64025  70.0002 130.5551 0002806 269.4991  90.5846 14.98335303 23628
STARLINK-33992          
1 64026U 25102E   25284.92477603  .00003275  00000+0  28210-3 0  9999
2 64026  70.0009 129.7486 0002981 266.3226  93.7592 14.98334852 23759
STARLINK-33967          
1 64027U 25102F   25284.82461564  .00007095  00000+0  60153-3 0  9994
2 64027  69.9997 129.7967 0002844 272.4704  87.6129 14.98348248 23598
STARLINK-33953          
1 64028U 25102G   25284.86216005  .00006618  00000+0  56169-3 0  9999
2 64028  70.0011 129.5254 0002653 267.9690  92.1165 14.98344553 23762
STARLINK-33790          
1 64029U 25102H   25284.83730884  .00006194  00000+0  52624-3 0  9994
2 64029  70.0044 129.8393 0002109 269.2178  90.8739 14.98344615 23703
STARLINK-34030          
1 64030U 25102J   25284.58262692  .00004399  00000+0  37616-3 0  9994
2 64030  69.9994 130.5593 0002926 269.4635  90.6189 14.98338373 23626
STARLINK-34024          
1 64031U 25102K   25284.56592851  .00007054  00000+0  59816-3 0  9993
2 64031  69.9994 130.4998 0002645 272.0727  88.0129 14.98343386 23552
STARLINK-34019          
1 64032U 25102L   25284.87051019  .00006859  00000+0  58185-3 0  9994
2 64032  69.9988 129.5545 0003222 271.6383  88.4407 14.98343755 23674
STARLINK-33860          
1 64033U 25102M   25284.54923402  .00006208  00000+0  52749-3 0  9991
2 64033  70.0000 130.4415 0002914 272.6636  87.4189 14.98341334 23621
STARLINK-33946          
1 64034U 25102N   25284.82061460  .00005715  00000+0  48625-3 0  9990
2 64034  70.0063 129.7866 0001625 266.9804  93.1169 14.98341026 23702
STARLINK-34046          
1 64035U 25102P   25284.85399922  .00003258  00000+0  28064-3 0  9996
2 64035  70.0027 129.7820 0002850 270.8756  89.2077 14.98340302 23434
STARLINK-34085          
1 64036U 25102Q   25284.57443281  .00000201  00000+0  24639-4 0  9994
2 64036  69.9999 130.5245 0002792 270.8110  89.2729 14.98334837 23610
STARLINK-34008          
1 64037U 25102R   25284.82896081  .00004270  00000+0  36536-3 0  9991
2 64037  70.0007 129.8061 0002645 268.4507  91.6349 14.98335155 23665
STARLINK-34079          
1 64038U 25102S   25284.86635146  .00002384  00000+0  20772-3 0  9998
2 64038  70.0032 129.5394 0004167 263.9878  96.0806 14.98291411 23766
STARLINK-34089          
1 64039U 25102T   25284.92494129  .00003016  00000+0  26043-3 0  9990
2 64039  70.0025 129.7432 0002839 270.8385  89.2449 14.98333998 23661
STARLINK-34117          
1 64040U 25102U   25284.84568192  .00006129  00000+0  52086-3 0  9999
2 64040  69.9999 129.8652 0002708 275.2125  84.8724 14.98338328 23592
STARLINK-34111          
1 64041U 25102V   25284.56610649  .00006441  00000+0  54710-3 0  9997
2 64041  70.0001 130.4937 0003363 271.3985  88.6789 14.98331912 23396
STARLINK-34049          
1 64042U 25102W   25284.92060651  .00000595  00000+0  57675-4 0  9998
2 64042  70.0008 129.7326 0003290 267.5179  92.5604 14.98325475 23665
STARLINK-34096          
1 64043U 25102X   25284.83714508  .00002099  00000+0  18358-3 0  9991
2 64043  70.0021 129.8406 0002670 269.3276  90.7577 14.98337680 23547
STARLINK-34081          
1 64044U 25102Y   25284.91225524  .00003281  00000+0  28260-3 0  9993
2 64044  70.0015 129.7018 0002824 267.8158  92.2678 14.98333345 23602
STARLINK-34033          
1 64045U 25102Z   25284.82044325  .00006755  00000+0  57306-3 0  9994
2 64045  70.0007 129.7805 0002189 278.1813  81.9097 14.98352800 23589
STARLINK-33952          
1 64046U 25102AA  25284.54506805  .00005836  00000+0  49650-3 0  9992
2 64046  70.0025 130.4252 0002521 272.6283  87.4587 14.98333056 23616
STARLINK-33961          
1 64047U 25102AB  25284.56175485  .00002981  00000+0  25744-3 0  9997
2 64047  70.0008 130.4839 0003050 269.1413  90.9396 14.98336622 23498
TIANYI A                
1 64048U 25103A   25284.26166237  .00002498  00000+0  12199-3 0  9994
2 64048  97.4116 356.4900 0001734  88.4378 271.7055 15.19177840 22286
TIANYI B                
1 64049U 25103B   25284.95207049  .00010815  00000+0  54873-3 0  9995
2 64049  97.4084 357.1778 0002158 359.8103   0.3129 15.17098310 22385
TIANYI C                
1 64050U 25103C   25284.95130994  .00010750  00000+0  54453-3 0  9993
2 64050  97.4038 357.0942 0002170 350.2895   9.8296 15.17157274 22389
TIANYI D                
1 64051U 25103D   25284.94476924  .00006468  00000+0  34300-3 0  9999
2 64051  97.4111 357.0870 0002354  21.1062 339.0268 15.15696759 22365
TIANYI E                
1 64052U 25103E   25284.93261939  .00013548  00000+0  67506-3 0  9998
2 64052  97.4042 357.1278 0002216 343.9823  16.1340 15.17677338 22378
TIANYI F                
1 64053U 25103F   25284.96371186  .00005924  00000+0  30752-3 0  9990
2 64053  97.4088 357.1715 0002275 337.9641  22.1494 15.16488723 22397
QPS-SAR-10 (WADATSUMI-I)
1 64055U 25104A   25284.94977247  .00007258  00000+0  60975-3 0  9993
2 64055  42.0040 205.1457 0009156 164.1019 196.0095 14.98575137 22148
TIANQI-16               
1 64058U 25105A   25284.84154718  .00000143  00000+0  18634-3 0  9997
2 64058  44.9855  47.1976 0010837 281.3543  78.6072 13.99021866 20411
TIANQI-17               
1 64059U 25105B   25284.78865155  .00000140  00000+0  18429-3 0  9994
2 64059  44.9800  46.8383 0010045 283.9197  76.0518 13.99024442 20414
TIANQI-18               
1 64060U 25105C   25284.82197866  .00000139  00000+0  18338-3 0  9995
2 64060  44.9857  47.0896 0009838 292.1225  67.8563 13.99054815 20417
TIANQI-20               
1 64061U 25105D   25284.80554994  .00000141  00000+0  18518-3 0  9996
2 64061  44.9853  46.9982 0009451 286.1814  73.7978 13.99036555 20424
CHINASAT 3B             
1 64062U 25106A   25284.19947412 -.00000050  00000+0  00000+0 0  9994
2 64062   0.0205  32.4331 0007762 192.1759  34.5367  1.00272746  1568
STARLINK-11741 [DTC]    
1 64064U 25107A   25284.97894184  .00377961  00000+0  27938-2 0  9999
2 64064  42.9992 275.1579 0001280 245.0022 115.0713 15.71038459 23904
STARLINK-11709 [DTC]    
1 64065U 25107B   25284.95770697  .00343094  00000+0  25604-2 0  9998
2 64065  42.9989 274.9855 0001058 262.4646  97.6101 15.70914202 23907
STARLINK-11737 [DTC]    
1 64066U 25107C   25284.94177348  .00258390  00000+0  19545-2 0  9993
2 64066  43.0008 274.8575 0002285 237.2444 122.8204 15.70848118 23906
STARLINK-11726 [DTC]    
1 64067U 25107D   25284.67683357  .00315186  00000+0  23524-2 0  9995
2 64067  43.0002 276.3047 0001200 306.9723  53.1035 15.70996275 23863
STARLINK-11700 [DTC]    
1 64068U 25107E   25284.96923551  .00258690  00000+0  19470-2 0  9992
2 64068  43.0006 275.0792 0001078 272.9980  87.0764 15.70967598 23907
STARLINK-11649 [DTC]    
1 64069U 25107F   25284.28480417  .00285493  00000+0  21326-2 0  9991
2 64069  43.0008 279.4137 0001024 271.8432  88.2318 15.71065163 23795
STARLINK-11713 [DTC]    
1 64070U 25107G   25284.95239714  .00262073  00000+0  19813-2 0  9996
2 64070  42.9991 274.9408 0001129 298.1164  61.9590 15.70850599 23904
STARLINK-11719 [DTC]    
1 64071U 25107H   25284.26890891  .00325512  00000+0  24340-2 0  9999
2 64071  42.9995 279.2855 0000885 163.5668 196.5229 15.70919391 23792
STARLINK-11733 [DTC]    
1 64072U 25107J   25284.68214332  .00378550  00000+0  28012-2 0  9996
2 64072  42.9993 276.3453 0001271 322.7765  37.3014 15.71010482 23866
STARLINK-11729 [DTC]    
1 64073U 25107K   25284.97363134  .00331851  00000+0  24715-2 0  9993
2 64073  43.0004 275.1115 0001356 244.4734 115.5993 15.70996785 23902
STARLINK-11730 [DTC]    
1 64074U 25107L   25284.96301196  .00385668  00000+0  28312-2 0  9995
2 64074  42.9991 275.0240 0002362 242.5055 117.5573 15.71179885 23908
STARLINK-11723 [DTC]    
1 64075U 25107M   25284.94708331  .00245960  00000+0  18606-2 0  9991
2 64075  43.0023 274.8974 0002355 263.2983  96.7617 15.70885080 23907
